satname,norad_id,inclination_deg,eccentricity,mean_motion_rev_per_day,perigee_km,apogee_km,l1,l2
STARLINK-1443,45660,53.055,0.0001656,15.06410427,546.032768440271,548.3264332984791,1 45660U 20035D   25362.76534851  .00001486  00000+0  11860-3 0  9995,2 45660  53.0550  25.0140 0001656  91.0134 269.1044 15.06410427308040
STARLINK-1446,45663,53.0272,0.0005365,15.39427713,444.138387479773,451.46261842043896,1 45663U 20035G   25362.22041481  .00035477  00000+0  89802-3 0  9999,2 45663  53.0272 338.0059 0005365  52.9690 307.1803 15.39427713308659
STARLINK-1448,45665,53.0557,0.0001508,15.06397304,546.1754769937288,548.2641646108814,1 45665U 20035J   25362.76904642  .00000845  00000+0  75603-4 0  9993,2 45665  53.0557  24.9933 0001508  91.7558 268.3604 15.06397304308033
STARLINK-1451,45668,53.058,0.0001512,15.0639434,546.1817897525552,548.2760204022507,1 45668U 20035M   25362.77277455  .00001066  00000+0  90477-4 0  9994,2 45668  53.0580  25.2994 0001512 105.9067 254.2088 15.06394340308049
STARLINK-1452,45669,53.038,0.0002585,15.33362252,464.0202304090981,467.5585403503392,1 45669U 20035N   25362.91668980  .00136717  00000+0  41167-2 0  9990,2 45669  53.0380 355.8970 0002585 160.1373 297.8882 15.33362252  5808
STARLINK-1453,45670,53.054,0.0002635,15.3729563,452.3100323995959,455.9106267422785,1 45670U 20035P   25362.21908740  .00124115  00000+0  33030-2 0  9995,2 45670  53.0540 353.6174 0002635  76.3793 283.7503 15.37295630308326
STARLINK-1454,45671,53.0556,0.0001419,15.06397819,546.2355344883244,548.2009503061172,1 45671U 20035Q   25362.39676867  .00000988  00000+0  85186-4 0  9999,2 45671  53.0556  26.6686 0001419  88.8298 271.2854 15.06397819307975
STARLINK-1456,45673,53.0544,0.0001813,15.35776155,457.3765687617033,459.855575425644,1 45673U 20035S   25362.91668980  .00136371  00000+0  38037-2 0  9993,2 45673  53.0544  22.3077 0001813  73.0084 109.1456 15.35776155  5831
STARLINK-1457,45674,53.0523,0.0010527,15.51323074,405.71322034063905,420.01098985651424,1 45674U 20035T   25362.91668980  .00186158  00000+0  30450-2 0  9993,2 45674  53.0523  10.3820 0010527  26.8649  67.9375 15.51323074  5957
STARLINK-1458,45675,53.0545,0.0001509,15.06404163,546.1537658001771,548.2438321443069,1 45675U 20035U   25362.80590723  .00005971  00000+0  41937-3 0  9997,2 45675  53.0545  24.8269 0001509  92.0318 268.0844 15.06404163308014
STARLINK-1460,45676,53.0548,0.000106,15.0641054,546.4451710216836,547.9133380676476,1 45676U 20035V   25362.77640965  .00005144  00000+0  36386-3 0  9992,2 45676  53.0548  24.9612 0001060  85.9405 274.1705 15.06410540308000
STARLINK-1392,45677,53.0553,0.0001498,15.06423583,546.1018739959836,548.176686769586,1 45677U 20035W   25362.78746095  .00005607  00000+0  39480-3 0  9997,2 45677  53.0553  24.9135 0001498  95.9191 264.1968 15.06423583308040
STARLINK-1394,45679,53.054,0.0001597,15.36518439,455.3225506010049,457.50550619947626,1 45679U 20035Y   25362.91668980  .00088053  00000+0  24174-2 0  9999,2 45679  53.0540  12.3878 0001597  82.5019 191.6723 15.36518439  5836
STARLINK-1402,45685,53.0532,0.0006572,15.33176249,461.8447129795941,470.84109736695336,1 45685U 20035AE  25362.81039635  .00100794  00000+0  30691-2 0  9992,2 45685  53.0532 357.9614 0006572  16.5694 343.5520 15.33176249308435
STARLINK-1404,45686,53.0535,0.0001372,15.06428792,546.1731702952102,548.0734617259232,1 45686U 20035AF  25362.74414727  .00006998  00000+0  48785-3 0  9999,2 45686  53.0535  15.1047 0001372  66.5602 293.5531 15.06428792308180
STARLINK-1413,45689,53.0555,8.61e-05,15.06428693,546.5273544823267,547.7198843609922,1 45689U 20035AJ  25362.76257318  .00008334  00000+0  57726-3 0  9996,2 45689  53.0555  15.0215 0000861 115.7329 244.3749 15.06428693308091
STARLINK-1417,45693,53.0555,0.0004353,15.08404431,538.063136492131,544.0870025198419,1 45693U 20035AN  25362.33439902  .00033995  00000+0  21689-2 0  9994,2 45693  53.0555  16.6699 0004353  28.8228 331.3002 15.08404431308119
STARLINK-1420,45695,53.0559,0.0001441,15.06409066,546.1858333701157,548.1817108166333,1 45695U 20035AQ  25362.69346816  .00005093  00000+0  36047-3 0  9999,2 45695  53.0559 355.3248 0001441  81.5864 278.5288 15.06409066308457
STARLINK-1422,45696,53.0547,0.0001238,15.0639756,546.3616771196657,548.0763952742273,1 45696U 20035AR  25362.76996796  .00004186  00000+0  29977-3 0  9992,2 45696  53.0547  14.9915 0001238  93.6256 266.4874 15.06397560308178
STARLINK-1351,45697,53.0555,0.0001472,15.09812093,535.755809043002,537.7915587483412,1 45697U 20035AS  25362.20255722  .00032690  00000+0  20083-2 0  9998,2 45697  53.0555 357.4069 0001472  86.8329 273.2830 15.09812093308385
STARLINK-1398,45699,53.0484,0.0006686,15.63641932,372.6307866929528,381.66395295227994,1 45699U 20035AU  25362.91668980  .00139113  00000+0  14468-2 0  9990,2 45699  53.0484 293.0436 0006686  81.7919 180.2551 15.63641932  5981
STARLINK-1400,45700,53.0551,0.0001464,15.06393032,546.2190397816212,548.2467880924214,1 45700U 20035AV  25362.25579174  .00002147  00000+0  16300-3 0  9990,2 45700  53.0551 357.2967 0001464  86.2255 273.8901 15.06393032308383
STARLINK-1403,45701,53.0563,0.0001511,15.0640396,546.153002801977,548.2458394684445,1 45701U 20035AW  25362.28526471  .00000502  00000+0  52614-4 0  9998,2 45701  53.0563 357.1681 0001511  93.6734 266.4427 15.06403960308389
STARLINK-1407,45703,53.0402,0.0005223,15.47133132,421.5641487330131,428.6708283717553,1 45703U 20035AY  25362.91668980  .00053958  00000+0  10475-2 0  9992,2 45703  53.0402 297.1934 0005223 225.4582  83.9239 15.47133132  5953
STARLINK-1411,45706,53.0507,0.0002074,15.50278267,414.5038635438905,417.32203546294477,1 45706U 20035BB  25362.19470079  .00070484  00000+0  12214-2 0  9991,2 45706  53.0507 327.5203 0002074  98.1994 261.9249 15.50278267308792
STARLINK-1423,45710,53.0554,0.000144,15.06399843,546.2147888590725,548.2092893823392,1 45710U 20035BF  25362.70914600  .00001797  00000+0  13949-3 0  9994,2 45710  53.0554 355.2605 0001440  88.6017 271.5137 15.06399843308450
STARLINK-1433,45711,53.0559,0.0001369,15.06400059,546.2632969189553,548.1594573046086,1 45711U 20035BG  25362.29264479  .00003333  00000+0  24252-3 0  9998,2 45711  53.0559 357.1347 0001369  92.9611 267.1535 15.06400059308385
STARLINK-1434,45712,53.0471,0.0001909,15.19505192,506.02055060313705,508.64942380785124,1 45712U 20035BH  25362.23001470  .00059744  00000+0  27711-2 0  9992,2 45712  53.0471 349.0923 0001909 342.1667  17.9260 15.19505192308508
STARLINK-1465,45731,53.0535,0.0001327,15.06393407,546.3127681723463,548.1507610424733,1 45731U 20038B   25362.79024473  .00001125  00000+0  94407-4 0  9993,2 45731  53.0535 194.8966 0001327  90.1928 269.9213 15.06393407305501
STARLINK-1471,45735,53.0492,0.0001402,15.43787678,433.9873775530077,435.897765064803,1 45735U 20038F   25362.61169280  .00030013  00000+0  65944-3 0  9995,2 45735  53.0492 121.1844 0001402  70.6984 289.4173 15.43787678306538
STARLINK-1474,45738,53.0338,0.0003532,15.79875608,328.42317114415073,333.1623591302432,1 45738U 20038J   25362.91668980  .00148483  00000+0  77734-3 0  9993,2 45738  53.0338  63.9864 0003532  44.9063 311.7641 15.79875608  5976
STARLINK-1480,45741,53.054,0.0001289,15.34456185,461.65448886001195,463.4180144242846,1 45741U 20038M   25362.91668980  .01780661  00000+0  47318-1 0  9991,2 45741  53.0540 192.8317 0001289 118.7465 358.1037 15.34456185  5782
STARLINK-1500,45744,53.0374,0.0002249,15.3062826,472.39562904182185,475.4776917742738,1 45744U 20038Q   25362.73343198  .00029279  00000+0  98361-3 0  9991,2 45744  53.0374 164.5524 0002249  69.7582 290.3659 15.30628260305936
STARLINK-1504,45746,53.0251,8.2e-05,15.47322207,424.0054401638081,425.1210830067075,1 45746U 20038S   25362.59171323  .00062233  00000+0  11981-2 0  9995,2 45746  53.0251 123.8376 0000820   1.8155 358.2854 15.47322207306483
STARLINK-1506,45747,53.0739,0.0003188,15.23611058,492.7681843547798,497.1504705731704,1 45747U 20038T   25362.68100397  .00011997  00000+0  50761-3 0  9990,2 45747  53.0739 170.1921 0003188  68.4691 291.6645 15.23611058305857
STARLINK-1464,45751,53.0527,0.0001374,15.06397094,546.2689203084428,548.1720085396673,1 45751U 20038X   25362.77365126  .00000552  00000+0  55984-4 0  9996,2 45751  53.0527 174.9711 0001374  95.2363 264.8783 15.06397094305795
STARLINK-1477,45754,53.0521,0.0006526,15.09747939,532.4567750157366,541.4823721155553,1 45754U 20038AA  25362.78047220  .00031136  00000+0  19167-2 0  9995,2 45754  53.0521 174.1567 0006526 140.3164 219.8305 15.09747939305800
STARLINK-1478,45755,53.0535,0.0001295,15.10627821,533.388967062484,535.1792841340139,1 45755U 20038AB  25362.91668980  .00976167  00000+0  54356-1 0  9993,2 45755  53.0535 174.2584 0001295  76.9934 195.4609 15.10627821  5782
STARLINK-1484,45756,53.0122,0.0003205,15.73014216,348.1314440896804,352.4443644533185,1 45756U 20038AC  25362.43203936  .00135258  00000+0  95992-3 0  9998,2 45756  53.0122  56.8573 0003205  27.7561 332.3627 15.73014216307404
STARLINK-1493,45759,53.0545,0.0001403,15.06393364,546.2602671410168,548.2035256533454,1 45759U 20038AF  25362.79577396  .00000522  00000+0  53953-4 0  9991,2 45759  53.0545 174.8715 0001403  91.3236 268.7914 15.06393364305789
STARLINK-1494,45760,53.052,0.0003093,15.56712565,395.0833734475764,399.274583911988,1 45760U 20038AG  25362.67219663  .00053920  00000+0  74316-3 0  9995,2 45760  53.0520 140.8438 0003093 189.6396 170.4556 15.56712565306262
STARLINK-1502,45764,53.054,0.0001367,15.06397124,546.2736761252636,548.1670688308996,1 45764U 20038AL  25362.76259454 -.00000253  00000+0  19101-5 0  9996,2 45764  53.0540 175.0221 0001367  89.8739 270.2406 15.06397124305797
STARLINK-1470,45772,53.0498,0.0005346,15.22057819,495.95760921388137,503.311322465157,1 45772U 20038AU  25362.69501303  .00077584  00000+0  33271-2 0  9991,2 45772  53.0498 142.3027 0005346 121.9525 238.1991 15.22057819306246
